STARLINK-5087           
1 54850U 22177AG  26183.70657826 -.00000045  00000+0  78854-5 0  9998
2 54850  43.0023 191.7994 0001251 282.3421  77.7290 15.27572552194688
STARLINK-5084           
1 54851U 22177AH  26183.50655916  .00000028  00000+0  10556-4 0  9999
2 54851  43.0013 192.8786 0001280 267.9438  92.1268 15.27576797194656
STARLINK-5427           
1 54853U 22177AK  26183.70916756 -.00024733  00000+0 -88855-3 0  9992
2 54853  43.0043 191.8217 0003842 257.1932 102.8491 15.27706955194686
STARLINK-5400           
1 54861U 22177AT  26183.50399191  .00000104  00000+0  13304-4 0  9999
2 54861  43.0002 192.8622 0001126 274.5134  85.5589 15.27575847194657
STARLINK-5401           
1 54870U 22177BC  26183.50141588  .00000331  00000+0  21566-4 0  9995
2 54870  43.0035 192.8372 0002436 278.6046  81.4529 15.27577413194657
STARLINK-33855          
1 64335U 25124U   26183.71302447  .00017997  00000+0  66136-3 0  9990
2 64335  42.9981 191.9460 0001438 277.3088  82.7600 15.27608557 59370
