{
  "schema": "int-temerity-real-tle-snapshot/v1",
  "source": "celestrak",
  "group": "STARLINK",
  "format": "celestrak-gp-json",
  "source_url": "https://celestrak.org/NORAD/elements/gp.php?NAME=STARLINK&FORMAT=JSON",
  "downloaded_at": "2026-07-03T12:25:16.552Z",
  "generated_at": "2026-07-03T12:25:35.465Z",
  "fingerprint": "eb0f9db4",
  "shell_id": "starlink-real-43deg-490km",
  "catalog_count": 10717,
  "shell_count": 3264,
  "selected_count": 1584,
  "mean_altitude_km": 490.23,
  "mean_inclination_deg": 43.0019,
  "mean_mean_motion_rev_per_day": 15.27566421,
  "layout": {
    "planes": 72,
    "satellites_per_plane": 22,
    "selection_strategy": "largest-shell-raan-clusters-even-slot-sampling",
    "raan_cluster_threshold_deg": 2.5,
    "selected_shell_key": "43.0deg-500km"
  },
  "satellites": [
    {
      "satellite_id": "P36-S17",
      "norad_id": 64335,
      "satellite_name": "STARLINK-33855",
      "cospar_id": "2025-124U",
      "shell_id": "starlink-real-43deg-490km",
      "plane_id": 35,
      "slot_id": 16,
      "epoch": "2026-07-02T17:06:45.314208",
      "inclination": 42.9981,
      "raan": 191.94600000000003,
      "eccentricity": 0.0001438,
      "argument_of_perigee": 277.3088,
      "mean_anomaly": 82.75999999999999,
      "mean_motion": 15.27608557,
      "bstar": 0.00066136,
      "status": "active",
      "raw_omm": {
        "OBJECT_NAME": "STARLINK-33855",
        "OBJECT_ID": "2025-124U",
        "EPOCH": "2026-07-02T17:06:45.314208",
        "MEAN_MOTION": 15.27608557,
        "ECCENTRICITY": 0.0001438,
        "INCLINATION": 42.9981,
        "RA_OF_ASC_NODE": 191.946,
        "ARG_OF_PERICENTER": 277.3088,
        "MEAN_ANOMALY": 82.76,
        "EPHEMERIS_TYPE": 0,
        "CLASSIFICATION_TYPE": "U",
        "NORAD_CAT_ID": 64335,
        "ELEMENT_SET_NO": 999,
        "REV_AT_EPOCH": 5937,
        "BSTAR": 0.00066136,
        "MEAN_MOTION_DOT": 0.00017997,
        "MEAN_MOTION_DDOT": 0
      },
      "source": "celestrak",
      "source_url": "https://celestrak.org/NORAD/elements/gp.php?NAME=STARLINK&FORMAT=JSON",
      "catalog_fingerprint": "eb0f9db4"
    },
    {
      "satellite_id": "P36-S18",
      "norad_id": 54853,
      "satellite_name": "STARLINK-5427",
      "cospar_id": "2022-177AK",
      "shell_id": "starlink-real-43deg-490km",
      "plane_id": 35,
      "slot_id": 17,
      "epoch": "2026-07-02T17:01:12.077184",
      "inclination": 43.0043,
      "raan": 191.82169999999996,
      "eccentricity": 0.0003842,
      "argument_of_perigee": 257.19319999999993,
      "mean_anomaly": 102.84910000000002,
      "mean_motion": 15.27706955,
      "bstar": -0.00088855,
      "status": "active",
      "raw_omm": {
        "OBJECT_NAME": "STARLINK-5427",
        "OBJECT_ID": "2022-177AK",
        "EPOCH": "2026-07-02T17:01:12.077184",
        "MEAN_MOTION": 15.27706955,
        "ECCENTRICITY": 0.0003842,
        "INCLINATION": 43.0043,
        "RA_OF_ASC_NODE": 191.8217,
        "ARG_OF_PERICENTER": 257.1932,
        "MEAN_ANOMALY": 102.8491,
        "EPHEMERIS_TYPE": 0,
        "CLASSIFICATION_TYPE": "U",
        "NORAD_CAT_ID": 54853,
        "ELEMENT_SET_NO": 999,
        "REV_AT_EPOCH": 19468,
        "BSTAR": -0.00088855,
        "MEAN_MOTION_DOT": -0.00024733,
        "MEAN_MOTION_DDOT": 0
      },
      "source": "celestrak",
      "source_url": "https://celestrak.org/NORAD/elements/gp.php?NAME=STARLINK&FORMAT=JSON",
      "catalog_fingerprint": "eb0f9db4"
    },
    {
      "satellite_id": "P36-S19",
      "norad_id": 54850,
      "satellite_name": "STARLINK-5087",
      "cospar_id": "2022-177AG",
      "shell_id": "starlink-real-43deg-490km",
      "plane_id": 35,
      "slot_id": 18,
      "epoch": "2026-07-02T16:57:28.361664",
      "inclination": 43.0023,
      "raan": 191.7994,
      "eccentricity": 0.0001251,
      "argument_of_perigee": 282.3421000000001,
      "mean_anomaly": 77.72899999999998,
      "mean_motion": 15.27572552,
      "bstar": 0.0000078854,
      "status": "active",
      "raw_omm": {
        "OBJECT_NAME": "STARLINK-5087",
        "OBJECT_ID": "2022-177AG",
        "EPOCH": "2026-07-02T16:57:28.361664",
        "MEAN_MOTION": 15.27572552,
        "ECCENTRICITY": 0.0001251,
        "INCLINATION": 43.0023,
        "RA_OF_ASC_NODE": 191.7994,
        "ARG_OF_PERICENTER": 282.3421,
        "MEAN_ANOMALY": 77.729,
        "EPHEMERIS_TYPE": 0,
        "CLASSIFICATION_TYPE": "U",
        "NORAD_CAT_ID": 54850,
        "ELEMENT_SET_NO": 999,
        "REV_AT_EPOCH": 19468,
        "BSTAR": 0.0000078854,
        "MEAN_MOTION_DOT": -4.5e-7,
        "MEAN_MOTION_DDOT": 0
      },
      "source": "celestrak",
      "source_url": "https://celestrak.org/NORAD/elements/gp.php?NAME=STARLINK&FORMAT=JSON",
      "catalog_fingerprint": "eb0f9db4"
    },
    {
      "satellite_id": "P36-S20",
      "norad_id": 54851,
      "satellite_name": "STARLINK-5084",
      "cospar_id": "2022-177AH",
      "shell_id": "starlink-real-43deg-490km",
      "plane_id": 35,
      "slot_id": 19,
      "epoch": "2026-07-02T12:09:26.711424",
      "inclination": 43.0013,
      "raan": 192.8786,
      "eccentricity": 0.000128,
      "argument_of_perigee": 267.9438,
      "mean_anomaly": 92.1268,
      "mean_motion": 15.27576797,
      "bstar": 0.000010556,
      "status": "active",
      "raw_omm": {
        "OBJECT_NAME": "STARLINK-5084",
        "OBJECT_ID": "2022-177AH",
        "EPOCH": "2026-07-02T12:09:26.711424",
        "MEAN_MOTION": 15.27576797,
        "ECCENTRICITY": 0.000128,
        "INCLINATION": 43.0013,
        "RA_OF_ASC_NODE": 192.8786,
        "ARG_OF_PERICENTER": 267.9438,
        "MEAN_ANOMALY": 92.1268,
        "EPHEMERIS_TYPE": 0,
        "CLASSIFICATION_TYPE": "U",
        "NORAD_CAT_ID": 54851,
        "ELEMENT_SET_NO": 999,
        "REV_AT_EPOCH": 19465,
        "BSTAR": 0.000010556,
        "MEAN_MOTION_DOT": 2.8e-7,
        "MEAN_MOTION_DDOT": 0
      },
      "source": "celestrak",
      "source_url": "https://celestrak.org/NORAD/elements/gp.php?NAME=STARLINK&FORMAT=JSON",
      "catalog_fingerprint": "eb0f9db4"
    },
    {
      "satellite_id": "P36-S21",
      "norad_id": 54861,
      "satellite_name": "STARLINK-5400",
      "cospar_id": "2022-177AT",
      "shell_id": "starlink-real-43deg-490km",
      "plane_id": 35,
      "slot_id": 20,
      "epoch": "2026-07-02T12:05:44.901024",
      "inclination": 43.0002,
      "raan": 192.86220000000003,
      "eccentricity": 0.0001126,
      "argument_of_perigee": 274.51340000000005,
      "mean_anomaly": 85.5589,
      "mean_motion": 15.27575847,
      "bstar": 0.000013304,
      "status": "active",
      "raw_omm": {
        "OBJECT_NAME": "STARLINK-5400",
        "OBJECT_ID": "2022-177AT",
        "EPOCH": "2026-07-02T12:05:44.901024",
        "MEAN_MOTION": 15.27575847,
        "ECCENTRICITY": 0.0001126,
        "INCLINATION": 43.0002,
        "RA_OF_ASC_NODE": 192.8622,
        "ARG_OF_PERICENTER": 274.5134,
        "MEAN_ANOMALY": 85.5589,
        "EPHEMERIS_TYPE": 0,
        "CLASSIFICATION_TYPE": "U",
        "NORAD_CAT_ID": 54861,
        "ELEMENT_SET_NO": 999,
        "REV_AT_EPOCH": 19465,
        "BSTAR": 0.000013304,
        "MEAN_MOTION_DOT": 0.00000104,
        "MEAN_MOTION_DDOT": 0
      },
      "source": "celestrak",
      "source_url": "https://celestrak.org/NORAD/elements/gp.php?NAME=STARLINK&FORMAT=JSON",
      "catalog_fingerprint": "eb0f9db4"
    },
    {
      "satellite_id": "P36-S22",
      "norad_id": 54870,
      "satellite_name": "STARLINK-5401",
      "cospar_id": "2022-177BC",
      "shell_id": "starlink-real-43deg-490km",
      "plane_id": 35,
      "slot_id": 21,
      "epoch": "2026-07-02T12:02:02.332032",
      "inclination": 43.0035,
      "raan": 192.83719999999994,
      "eccentricity": 0.0002436,
      "argument_of_perigee": 278.6046,
      "mean_anomaly": 81.4529,
      "mean_motion": 15.27577413,
      "bstar": 0.000021566,
      "status": "active",
      "raw_omm": {
        "OBJECT_NAME": "STARLINK-5401",
        "OBJECT_ID": "2022-177BC",
        "EPOCH": "2026-07-02T12:02:02.332032",
        "MEAN_MOTION": 15.27577413,
        "ECCENTRICITY": 0.0002436,
        "INCLINATION": 43.0035,
        "RA_OF_ASC_NODE": 192.8372,
        "ARG_OF_PERICENTER": 278.6046,
        "MEAN_ANOMALY": 81.4529,
        "EPHEMERIS_TYPE": 0,
        "CLASSIFICATION_TYPE": "U",
        "NORAD_CAT_ID": 54870,
        "ELEMENT_SET_NO": 999,
        "REV_AT_EPOCH": 19465,
        "BSTAR": 0.000021566,
        "MEAN_MOTION_DOT": 0.00000331,
        "MEAN_MOTION_DDOT": 0
      },
      "source": "celestrak",
      "source_url": "https://celestrak.org/NORAD/elements/gp.php?NAME=STARLINK&FORMAT=JSON",
      "catalog_fingerprint": "eb0f9db4"
    }
  ]
}